[
    {
        "Altitude(m)": 705569.1221408244,
        "Argument of Periapsis(deg)": 0.009112096949301655,
        "Eccentricity": 0.0,
        "Inclination(deg)": 45.0,
        "Latitude(deg)": 37.13069378344408,
        "Longitude(deg)": -66.75589321531018,
        "Mean Anomaly(deg)": -301.68252668201535,
        "RAAN(deg)": 344.99139844683344,
        "Satellite Name": "Constellation 1 1521",
        "Satellite Number": 1521,
        "Semi-Major Axis(m)": 7083131.272910544,
        "Time(s)": 152
    },
    {
        "Altitude(m)": 705574.8621083329,
        "Argument of Periapsis(deg)": 0.009172044955547059,
        "Eccentricity": 0.0,
        "Inclination(deg)": 45.0,
        "Latitude(deg)": 37.159014827900265,
        "Longitude(deg)": -66.6926999940984,
        "Mean Anomaly(deg)": -301.6218255417654,
        "RAAN(deg)": 344.99134185766786,
        "Satellite Name": "Constellation 1 1521",
        "Satellite Number": 1521,
        "Semi-Major Axis(m)": 7083131.272910544,
        "Time(s)": 153
    },
    {
        "Altitude(m)": 705580.5978495993,
        "Argument of Periapsis(deg)": 0.009231992961792466,
        "Eccentricity": 0.0,
        "Inclination(deg)": 45.0,
        "Latitude(deg)": 37.18729750001068,
        "Longitude(deg)": -66.62945661203592,
        "Mean Anomaly(deg)": -301.56112440151554,
        "RAAN(deg)": 344.9912852685023,
        "Satellite Name": "Constellation 1 1521",
        "Satellite Number": 1521,
        "Semi-Major Axis(m)": 7083131.272910544,
        "Time(s)": 154
    },
    {
        "Altitude(m)": 705586.32932895,
        "Argument of Periapsis(deg)": 0.009291940968037872,
        "Eccentricity": 0.0,
        "Inclination(deg)": 45.0,
        "Latitude(deg)": 37.215541732632765,
        "Longitude(deg)": -66.56616304828877,
        "Mean Anomaly(deg)": -301.50042326126567,
        "RAAN(deg)": 344.99122867933676,
        "Satellite Name": "Constellation 1 1521",
        "Satellite Number": 1521,
        "Semi-Major Axis(m)": 7083131.272910544,
        "Time(s)": 155
    },
    {
        "Altitude(m)": 705592.0565107564,
        "Argument of Periapsis(deg)": 0.009351888974283276,
        "Eccentricity": 0.0,
        "Inclination(deg)": 45.0,
        "Latitude(deg)": 37.24374745857914,
        "Longitude(deg)": -66.5028194504199,
        "Mean Anomaly(deg)": -301.4397221210158,
        "RAAN(deg)": 344.9911720901712,
        "Satellite Name": "Constellation 1 1521",
        "Satellite Number": 1521,
        "Semi-Major Axis(m)": 7083131.272910544,
        "Time(s)": 156
    },
    {
        "Altitude(m)": 705597.7793594177,
        "Argument of Periapsis(deg)": 0.00941183698052868,
        "Eccentricity": 0.0,
        "Inclination(deg)": 45.0,
        "Latitude(deg)": 37.271914610618,
        "Longitude(deg)": -66.43942546200358,
        "Mean Anomaly(deg)": -301.37902098076586,
        "RAAN(deg)": 344.99111550100565,
        "Satellite Name": "Constellation 1 1521",
        "Satellite Number": 1521,
        "Semi-Major Axis(m)": 7083131.272910544,
        "Time(s)": 157
    },
    {
        "Altitude(m)": 705603.4978393689,
        "Argument of Periapsis(deg)": 0.009471784986774088,
        "Eccentricity": 0.0,
        "Inclination(deg)": 45.0,
        "Latitude(deg)": 37.30004312147316,
        "Longitude(deg)": -66.37598123120726,
        "Mean Anomaly(deg)": -301.318319840516,
        "RAAN(deg)": 344.99105891184,
        "Satellite Name": "Constellation 1 1521",
        "Satellite Number": 1521,
        "Semi-Major Axis(m)": 7083131.272910544,
        "Time(s)": 158
    },
    {
        "Altitude(m)": 705609.2119150904,
        "Argument of Periapsis(deg)": 0.009531732993019492,
        "Eccentricity": 0.0,
        "Inclination(deg)": 45.0,
        "Latitude(deg)": 37.32813292382459,
        "Longitude(deg)": -66.312486738406,
        "Mean Anomaly(deg)": -301.25761870026605,
        "RAAN(deg)": 344.99100232267443,
        "Satellite Name": "Constellation 1 1521",
        "Satellite Number": 1521,
        "Semi-Major Axis(m)": 7083131.272910544,
        "Time(s)": 159
    },
    {
        "Altitude(m)": 705614.9215510876,
        "Argument of Periapsis(deg)": 0.009591680999264898,
        "Eccentricity": 0.0,
        "Inclination(deg)": 45.0,
        "Latitude(deg)": 37.35618395030891,
        "Longitude(deg)": -66.2489419642808,
        "Mean Anomaly(deg)": -301.1969175600162,
        "RAAN(deg)": 344.9909457335089,
        "Satellite Name": "Constellation 1 1521",
        "Satellite Number": 1521,
        "Semi-Major Axis(m)": 7083131.272910544,
        "Time(s)": 160
    },
    {
        "Altitude(m)": 705620.6267119187,
        "Argument of Periapsis(deg)": 0.009651629005510304,
        "Eccentricity": 0.0,
        "Inclination(deg)": 45.0,
        "Latitude(deg)": 37.38419613351956,
        "Longitude(deg)": -66.18534688981961,
        "Mean Anomaly(deg)": -301.13621641976624,
        "RAAN(deg)": 344.9908891443433,
        "Satellite Name": "Constellation 1 1521",
        "Satellite Number": 1521,
        "Semi-Major Axis(m)": 7083131.272910544,
        "Time(s)": 161
    },
    {
        "Altitude(m)": 705626.3273621683,
        "Argument of Periapsis(deg)": 0.00971157701175571,
        "Eccentricity": 0.0,
        "Inclination(deg)": 45.0,
        "Latitude(deg)": 37.412169406007116,
        "Longitude(deg)": -66.12170149631952,
        "Mean Anomaly(deg)": -301.07551527951637,
        "RAAN(deg)": 344.9908325551778,
        "Satellite Name": "Constellation 1 1521",
        "Satellite Number": 1521,
        "Semi-Major Axis(m)": 7083131.272910544,
        "Time(s)": 162
    },
    {
        "Altitude(m)": 705632.0234664633,
        "Argument of Periapsis(deg)": 0.009771525018001118,
        "Eccentricity": 0.0,
        "Inclination(deg)": 45.0,
        "Latitude(deg)": 37.44010370027971,
        "Longitude(deg)": -66.05800593348417,
        "Mean Anomaly(deg)": -301.0148141392665,
        "RAAN(deg)": 344.99077596601217,
        "Satellite Name": "Constellation 1 1521",
        "Satellite Number": 1521,
        "Semi-Major Axis(m)": 7083131.272910544,
        "Time(s)": 163
    },
    {
        "Altitude(m)": 705637.7149894682,
        "Argument of Periapsis(deg)": 0.00983147302424652,
        "Eccentricity": 0.0,
        "Inclination(deg)": 45.0,
        "Latitude(deg)": 37.467998948803704,
        "Longitude(deg)": -65.99425984703835,
        "Mean Anomaly(deg)": -300.95411299901656,
        "RAAN(deg)": 344.9907193768466,
        "Satellite Name": "Constellation 1 1521",
        "Satellite Number": 1521,
        "Semi-Major Axis(m)": 7083131.272910544,
        "Time(s)": 164
    },
    {
        "Altitude(m)": 705643.4018958863,
        "Argument of Periapsis(deg)": 0.009891421030491928,
        "Eccentricity": 0.0,
        "Inclination(deg)": 45.0,
        "Latitude(deg)": 37.495855084003495,
        "Longitude(deg)": -65.93046338731035,
        "Mean Anomaly(deg)": -300.8934118587666,
        "RAAN(deg)": 344.99066278768106,
        "Satellite Name": "Constellation 1 1521",
        "Satellite Number": 1521,
        "Semi-Major Axis(m)": 7083131.272910544,
        "Time(s)": 165
    },
    {
        "Altitude(m)": 705649.0841504562,
        "Argument of Periapsis(deg)": 0.009951369036737332,
        "Eccentricity": 0.0,
        "Inclination(deg)": 45.0,
        "Latitude(deg)": 37.523672038262134,
        "Longitude(deg)": -65.86661653684611,
        "Mean Anomaly(deg)": -300.83271071851675,
        "RAAN(deg)": 344.9906061985155,
        "Satellite Name": "Constellation 1 1521",
        "Satellite Number": 1521,
        "Semi-Major Axis(m)": 7083131.272910544,
        "Time(s)": 166
    },
    {
        "Altitude(m)": 705654.76171796,
        "Argument of Periapsis(deg)": 0.010011317042982738,
        "Eccentricity": 0.0,
        "Inclination(deg)": 45.0,
        "Latitude(deg)": 37.5514497439219,
        "Longitude(deg)": -65.80271927850725,
        "Mean Anomaly(deg)": -300.7720095782669,
        "RAAN(deg)": 344.99054960934996,
        "Satellite Name": "Constellation 1 1521",
        "Satellite Number": 1521,
        "Semi-Major Axis(m)": 7083131.272910544,
        "Time(s)": 167
    },
    {
        "Altitude(m)": 705660.4345632136,
        "Argument of Periapsis(deg)": 0.010071265049228144,
        "Eccentricity": 0.0,
        "Inclination(deg)": 45.0,
        "Latitude(deg)": 37.579188133284326,
        "Longitude(deg)": -65.73877159547283,
        "Mean Anomaly(deg)": -300.71130843801694,
        "RAAN(deg)": 344.9904930201843,
        "Satellite Name": "Constellation 1 1521",
        "Satellite Number": 1521,
        "Semi-Major Axis(m)": 7083131.272910544,
        "Time(s)": 168
    },
    {
        "Altitude(m)": 705666.1026510762,
        "Argument of Periapsis(deg)": 0.01013121305547355,
        "Eccentricity": 0.0,
        "Inclination(deg)": 45.0,
        "Latitude(deg)": 37.60688713861077,
        "Longitude(deg)": -65.67477347124044,
        "Mean Anomaly(deg)": -300.65060729776707,
        "RAAN(deg)": 344.99043643101874,
        "Satellite Name": "Constellation 1 1521",
        "Satellite Number": 1521,
        "Semi-Major Axis(m)": 7083131.272910544,
        "Time(s)": 169
    },
    {
        "Altitude(m)": 705671.7659464446,
        "Argument of Periapsis(deg)": 0.010191161061718957,
        "Eccentricity": 0.0,
        "Inclination(deg)": 45.0,
        "Latitude(deg)": 37.634546692122825,
        "Longitude(deg)": -65.61072488962806,
        "Mean Anomaly(deg)": -300.5899061575172,
        "RAAN(deg)": 344.9903798418532,
        "Satellite Name": "Constellation 1 1521",
        "Satellite Number": 1521,
        "Semi-Major Axis(m)": 7083131.272910544,
        "Time(s)": 170
    }
]